{
  "type": "FeatureCollection",
  "features": [
    {
      "type": "Feature",
      "properties": {
        "norad_id": 39773,
        "name": "EUTELSAT 3B",
        "group": "eutelsat",
        "lat": -0.007989948182434094,
        "lon": 171.10680078740904,
        "alt_km": 35776.5855462097,
        "timestamp": "2025-12-12T05:47:28.443438+00:00",
        "meta_object_name": "EUTELSAT 3B",
        "meta_object_id": "2014-030A",
        "meta_epoch": "2025-12-11T22:05:10.789728",
        "meta_mean_motion": 1.00270349,
        "meta_eccentricity": 0.00046045,
        "meta_inclination": 0.0612,
        "meta_ra_of_asc_node": 347.6355,
        "meta_arg_of_pericenter": 242.7733,
        "meta_mean_anomaly": 184.8606,
        "meta_ephemeris_type": 0,
        "meta_classification_type": "U",
        "meta_norad_cat_id": 39773,
        "meta_element_set_no": 999,
        "meta_rev_at_epoch": 4218,
        "meta_bstar": 0,
        "meta_mean_motion_dot": 2.8e-07,
        "meta_mean_motion_ddot": 0,
        "tle_line1": "1 39773U 14030A   25345.92026377  .00000028  00000+0  00000+0 0  9990",
        "tle_line2": "2 39773   0.0612 347.6355 0004604 242.7733 184.8606  1.00270349 42189"
      },
      "geometry": {
        "type": "Point",
        "coordinates": [
          171.10680078740904,
          -0.007989948182434094
        ]
      }
    },
    {
      "type": "Feature",
      "properties": {
        "norad_id": 40425,
        "name": "EUTELSAT 115 WEST B",
        "group": "eutelsat",
        "lat": -0.013684445837302803,
        "lon": 53.15405038101789,
        "alt_km": 35786.10226786327,
        "timestamp": "2025-12-12T05:47:28.443450+00:00",
        "meta_object_name": "EUTELSAT 115 WEST B",
        "meta_object_id": "2015-010B",
        "meta_epoch": "2025-12-11T23:14:13.712928",
        "meta_mean_motion": 1.00272293,
        "meta_eccentricity": 2.161e-05,
        "meta_inclination": 0.0398,
        "meta_ra_of_asc_node": 160.8352,
        "meta_arg_of_pericenter": 353.0477,
        "meta_mean_anomaly": 160.6978,
        "meta_ephemeris_type": 0,
        "meta_classification_type": "U",
        "meta_norad_cat_id": 40425,
        "meta_element_set_no": 999,
        "meta_rev_at_epoch": 3951,
        "meta_bstar": 0,
        "meta_mean_motion_dot": -1.6e-07,
        "meta_mean_motion_ddot": 0,
        "tle_line1": "1 40425U 15010B   25345.96821427 -.00000016  00000+0  00000+0 0  9996",
        "tle_line2": "2 40425   0.0398 160.8352 0000216 353.0477 160.6978  1.00272293 39511"
      },
      "geometry": {
        "type": "Point",
        "coordinates": [
          53.15405038101789,
          -0.013684445837302803
        ]
      }
    },
    {
      "type": "Feature",
      "properties": {
        "norad_id": 40875,
        "name": "EUTELSAT 8 WEST B",
        "group": "eutelsat",
        "lat": 0.028804731524460076,
        "lon": 160.02151627272278,
        "alt_km": 35789.74663901993,
        "timestamp": "2025-12-12T05:47:28.443462+00:00",
        "meta_object_name": "EUTELSAT 8 WEST B",
        "meta_object_id": "2015-039B",
        "meta_epoch": "2025-12-11T22:02:03.588576",
        "meta_mean_motion": 1.0027162,
        "meta_eccentricity": 0.00042017,
        "meta_inclination": 0.0653,
        "meta_ra_of_asc_node": 6.34,
        "meta_arg_of_pericenter": 255.4876,
        "meta_mean_anomaly": 141.5745,
        "meta_ephemeris_type": 0,
        "meta_classification_type": "U",
        "meta_norad_cat_id": 40875,
        "meta_element_set_no": 999,
        "meta_rev_at_epoch": 3777,
        "meta_bstar": 0,
        "meta_mean_motion_dot": -5.7e-07,
        "meta_mean_motion_ddot": 0,
        "tle_line1": "1 40875U 15039B   25345.91809709 -.00000057  00000+0  00000+0 0  9995",
        "tle_line2": "2 40875   0.0653   6.3400 0004201 255.4876 141.5745  1.00271620 37777"
      },
      "geometry": {
        "type": "Point",
        "coordinates": [
          160.02151627272278,
          0.028804731524460076
        ]
      }
    },
    {
      "type": "Feature",
      "properties": {
        "norad_id": 41310,
        "name": "EUTELSAT 9B",
        "group": "eutelsat",
        "lat": 0.030880474802517544,
        "lon": 177.00622448262934,
        "alt_km": 35787.53682476501,
        "timestamp": "2025-12-12T05:47:28.443474+00:00",
        "meta_object_name": "EUTELSAT 9B",
        "meta_object_id": "2016-005A",
        "meta_epoch": "2025-12-11T22:06:55.623168",
        "meta_mean_motion": 1.00269719,
        "meta_eccentricity": 0.0004684,
        "meta_inclination": 0.0432,
        "meta_ra_of_asc_node": 62.511,
        "meta_arg_of_pericenter": 207.2212,
        "meta_mean_anomaly": 151.8834,
        "meta_ephemeris_type": 0,
        "meta_classification_type": "U",
        "meta_norad_cat_id": 41310,
        "meta_element_set_no": 999,
        "meta_rev_at_epoch": 3623,
        "meta_bstar": 0,
        "meta_mean_motion_dot": 7e-07,
        "meta_mean_motion_ddot": 0,
        "tle_line1": "1 41310U 16005A   25345.92147712  .00000070  00000+0  00000+0 0  9998",
        "tle_line2": "2 41310   0.0432  62.5110 0004684 207.2212 151.8834  1.00269719 36232"
      },
      "geometry": {
        "type": "Point",
        "coordinates": [
          177.00622448262934,
          0.030880474802517544
        ]
      }
    },
    {
      "type": "Feature",
      "properties": {
        "norad_id": 41382,
        "name": "EUTELSAT 65 WEST A",
        "group": "eutelsat",
        "lat": 0.06600660427513061,
        "lon": 102.84735091366859,
        "alt_km": 35796.39639964281,
        "timestamp": "2025-12-12T05:47:28.443491+00:00",
        "meta_object_name": "EUTELSAT 65 WEST A",
        "meta_object_id": "2016-014A",
        "meta_epoch": "2025-12-11T23:28:27.350112",
        "meta_mean_motion": 1.00272135,
        "meta_eccentricity": 0.00025399,
        "meta_inclination": 0.0516,
        "meta_ra_of_asc_node": 12.3148,
        "meta_arg_of_pericenter": 255.844,
        "meta_mean_anomaly": 99.687,
        "meta_ephemeris_type": 0,
        "meta_classification_type": "U",
        "meta_norad_cat_id": 41382,
        "meta_element_set_no": 999,
        "meta_rev_at_epoch": 3565,
        "meta_bstar": 0,
        "meta_mean_motion_dot": -2.68e-06,
        "meta_mean_motion_ddot": 0,
        "tle_line1": "1 41382U 16014A   25345.97809433 -.00000268  00000+0  00000+0 0  9997",
        "tle_line2": "2 41382   0.0516  12.3148 0002539 255.8440  99.6870  1.00272135 35657"
      },
      "geometry": {
        "type": "Point",
        "coordinates": [
          102.84735091366859,
          0.06600660427513061
        ]
      }
    },
    {
      "type": "Feature",
      "properties": {
        "norad_id": 41589,
        "name": "EUTELSAT 117 WEST B",
        "group": "eutelsat",
        "lat": -0.0094327066316838,
        "lon": 51.08233796565814,
        "alt_km": 35782.434041936416,
        "timestamp": "2025-12-12T05:47:28.443503+00:00",
        "meta_object_name": "EUTELSAT 117 WEST B",
        "meta_object_id": "2016-038B",
        "meta_epoch": "2025-12-11T23:13:36.273216",
        "meta_mean_motion": 1.00275784,
        "meta_eccentricity": 5.992e-05,
        "meta_inclination": 0.0087,
        "meta_ra_of_asc_node": 154.6922,
        "meta_arg_of_pericenter": 250.9411,
        "meta_mean_anomaly": 266.7128,
        "meta_ephemeris_type": 0,
        "meta_classification_type": "U",
        "meta_norad_cat_id": 41589,
        "meta_element_set_no": 999,
        "meta_rev_at_epoch": 3478,
        "meta_bstar": 0,
        "meta_mean_motion_dot": -4e-08,
        "meta_mean_motion_ddot": 0,
        "tle_line1": "1 41589U 16038B   25345.96778094 -.00000004  00000+0  00000+0 0  9997",
        "tle_line2": "2 41589   0.0087 154.6922 0000599 250.9411 266.7128  1.00275784 34786"
      },
      "geometry": {
        "type": "Point",
        "coordinates": [
          51.08233796565814,
          -0.0094327066316838
        ]
      }
    },
    {
      "type": "Feature",
      "properties": {
        "norad_id": 42741,
        "name": "EUTELSAT 172B",
        "group": "eutelsat",
        "lat": -0.01679418586663368,
        "lon": -19.956216739099386,
        "alt_km": 35786.43431576443,
        "timestamp": "2025-12-12T05:47:28.443515+00:00",
        "meta_object_name": "EUTELSAT 172B",
        "meta_object_id": "2017-029B",
        "meta_epoch": "2025-12-11T21:10:38.515008",
        "meta_mean_motion": 1.00269803,
        "meta_eccentricity": 5.68e-06,
        "meta_inclination": 0.0365,
        "meta_ra_of_asc_node": 150.651,
        "meta_arg_of_pericenter": 154.042,
        "meta_mean_anomaly": 265.7964,
        "meta_ephemeris_type": 0,
        "meta_classification_type": "U",
        "meta_norad_cat_id": 42741,
        "meta_element_set_no": 999,
        "meta_rev_at_epoch": 3185,
        "meta_bstar": 0,
        "meta_mean_motion_dot": 2e-08,
        "meta_mean_motion_ddot": 0,
        "tle_line1": "1 42741U 17029B   25345.88239022  .00000002  00000+0  00000+0 0  9990",
        "tle_line2": "2 42741   0.0365 150.6510 0000056 154.0420 265.7964  1.00269803 31854"
      },
      "geometry": {
        "type": "Point",
        "coordinates": [
          -19.956216739099386,
          -0.01679418586663368
        ]
      }
    }
  ]
}